[{"OBJECT_NAME":"COSMOS 2433 (720)","OBJECT_ID":"2007-052A","EPOCH":"2026-04-24T21:20:57.948576","MEAN_MOTION":2.13103913,"ECCENTRICITY":8.775e-5,"INCLINATION":65.6073,"RA_OF_ASC_NODE":317.7278,"ARG_OF_PERICENTER":210.0462,"MEAN_ANOMALY":149.9789,"EPHEMERIS_TYPE":0,"CLASSIFICATION_TYPE":"U","NORAD_CAT_ID":32275,"ELEMENT_SET_NO":999,"REV_AT_EPOCH":14392,"BSTAR":0,"MEAN_MOTION_DOT":-2.5e-7,"MEAN_MOTION_DDOT":0},{"OBJECT_NAME":"COSMOS 2432 (719)","OBJECT_ID":"2007-052B","EPOCH":"2026-04-26T03:19:44.529312","MEAN_MOTION":2.13103016,"ECCENTRICITY":0.00090201,"INCLINATION":65.6218,"RA_OF_ASC_NODE":317.8121,"ARG_OF_PERICENTER":337.4838,"MEAN_ANOMALY":204.913,"EPHEMERIS_TYPE":0,"CLASSIFICATION_TYPE":"U","NORAD_CAT_ID":32276,"ELEMENT_SET_NO":999,"REV_AT_EPOCH":14397,"BSTAR":0,"MEAN_MOTION_DOT":-2.8e-7,"MEAN_MOTION_DDOT":0},{"OBJECT_NAME":"COSMOS 2434 (721)","OBJECT_ID":"2007-065A","EPOCH":"2026-04-23T06:16:19.560000","MEAN_MOTION":2.13101316,"ECCENTRICITY":0.0001761,"INCLINATION":64.3156,"RA_OF_ASC_NODE":193.7675,"ARG_OF_PERICENTER":53.0873,"MEAN_ANOMALY":27.9132,"EPHEMERIS_TYPE":0,"CLASSIFICATION_TYPE":"U","NORAD_CAT_ID":32393,"ELEMENT_SET_NO":999,"REV_AT_EPOCH":14260,"BSTAR":0,"MEAN_MOTION_DOT":-6.0e-8,"MEAN_MOTION_DDOT":0},{"OBJECT_NAME":"COSMOS 2436 (723)","OBJECT_ID":"2007-065C","EPOCH":"2026-04-24T20:40:28.937856","MEAN_MOTION":2.13100207,"ECCENTRICITY":0.00171847,"INCLINATION":64.3242,"RA_OF_ASC_NODE":193.7851,"ARG_OF_PERICENTER":359.7473,"MEAN_ANOMALY":1.3358,"EPHEMERIS_TYPE":0,"CLASSIFICATION_TYPE":"U","NORAD_CAT_ID":32395,"ELEMENT_SET_NO":999,"REV_AT_EPOCH":14259,"BSTAR":0,"MEAN_MOTION_DOT":-1.7e-7,"MEAN_MOTION_DDOT":0},{"OBJECT_NAME":"COSMOS 2456 (730)","OBJECT_ID":"2009-070A","EPOCH":"2026-04-26T22:26:13.714080","MEAN_MOTION":2.13103361,"ECCENTRICITY":0.0006185,"INCLINATION":64.9833,"RA_OF_ASC_NODE":72.7188,"ARG_OF_PERICENTER":317.3531,"MEAN_ANOMALY":219.7098,"EPHEMERIS_TYPE":0,"CLASSIFICATION_TYPE":"U","NORAD_CAT_ID":36111,"ELEMENT_SET_NO":999,"REV_AT_EPOCH":12733,"BSTAR":0,"MEAN_MOTION_DOT":-7.0e-8,"MEAN_MOTION_DDOT":0},{"OBJECT_NAME":"COSMOS 2457 (733)","OBJECT_ID":"2009-070B","EPOCH":"2026-04-27T03:53:41.957088","MEAN_MOTION":2.13100836,"ECCENTRICITY":0.0001155,"INCLINATION":64.9688,"RA_OF_ASC_NODE":72.5561,"ARG_OF_PERICENTER":162.1802,"MEAN_ANOMALY":317.2213,"EPHEMERIS_TYPE":0,"CLASSIFICATION_TYPE":"U","NORAD_CAT_ID":36112,"ELEMENT_SET_NO":999,"REV_AT_EPOCH":12734,"BSTAR":0,"MEAN_MOTION_DOT":-1.0e-7,"MEAN_MOTION_DDOT":0},{"OBJECT_NAME":"COSMOS 2460 (732)","OBJECT_ID":"2010-007C","EPOCH":"2026-04-25T14:26:57.400800","MEAN_MOTION":2.13105948,"ECCENTRICITY":0.00022771,"INCLINATION":65.4503,"RA_OF_ASC_NODE":316.2461,"ARG_OF_PERICENTER":66.9045,"MEAN_ANOMALY":297.1399,"EPHEMERIS_TYPE":0,"CLASSIFICATION_TYPE":"U","NORAD_CAT_ID":36402,"ELEMENT_SET_NO":999,"REV_AT_EPOCH":12561,"BSTAR":0,"MEAN_MOTION_DOT":-2.5e-7,"MEAN_MOTION_DDOT":0},{"OBJECT_NAME":"COSMOS 2476 (744)","OBJECT_ID":"2011-064A","EPOCH":"2026-04-25T15:22:29.441856","MEAN_MOTION":2.13103647,"ECCENTRICITY":0.00242894,"INCLINATION":65.2415,"RA_OF_ASC_NODE":74.6442,"ARG_OF_PERICENTER":242.1943,"MEAN_ANOMALY":290.2948,"EPHEMERIS_TYPE":0,"CLASSIFICATION_TYPE":"U","NORAD_CAT_ID":37867,"ELEMENT_SET_NO":999,"REV_AT_EPOCH":11264,"BSTAR":0,"MEAN_MOTION_DOT":1.3e-7,"MEAN_MOTION_DDOT":0},{"OBJECT_NAME":"COSMOS 2477 (745)","OBJECT_ID":"2011-064B","EPOCH":"2026-04-25T09:55:19.123392","MEAN_MOTION":2.13102721,"ECCENTRICITY":0.00212181,"INCLINATION":65.2482,"RA_OF_ASC_NODE":74.7307,"ARG_OF_PERICENTER":243.9746,"MEAN_ANOMALY":294.7055,"EPHEMERIS_TYPE":0,"CLASSIFICATION_TYPE":"U","NORAD_CAT_ID":37868,"ELEMENT_SET_NO":999,"REV_AT_EPOCH":11263,"BSTAR":0,"MEAN_MOTION_DOT":1.5e-7,"MEAN_MOTION_DDOT":0},{"OBJECT_NAME":"COSMOS 2475 (743)","OBJECT_ID":"2011-064C","EPOCH":"2026-04-26T09:38:30.177024","MEAN_MOTION":2.13101656,"ECCENTRICITY":0.0027096,"INCLINATION":65.2555,"RA_OF_ASC_NODE":74.7187,"ARG_OF_PERICENTER":255.3204,"MEAN_ANOMALY":276.9088,"EPHEMERIS_TYPE":0,"CLASSIFICATION_TYPE":"U","NORAD_CAT_ID":37869,"ELEMENT_SET_NO":999,"REV_AT_EPOCH":11266,"BSTAR":0,"MEAN_MOTION_DOT":5.0e-8,"MEAN_MOTION_DDOT":0},{"OBJECT_NAME":"COSMOS 2485 (747)","OBJECT_ID":"2013-019A","EPOCH":"2026-04-23T00:09:33.846336","MEAN_MOTION":2.13103112,"ECCENTRICITY":0.00245834,"INCLINATION":65.3905,"RA_OF_ASC_NODE":75.4553,"ARG_OF_PERICENTER":237.7272,"MEAN_ANOMALY":122.0157,"EPHEMERIS_TYPE":0,"CLASSIFICATION_TYPE":"U","NORAD_CAT_ID":39155,"ELEMENT_SET_NO":999,"REV_AT_EPOCH":10110,"BSTAR":0,"MEAN_MOTION_DOT":2.5e-7,"MEAN_MOTION_DDOT":0},{"OBJECT_NAME":"COSMOS 2492 (754)","OBJECT_ID":"2014-012A","EPOCH":"2026-04-21T13:23:15.978048","MEAN_MOTION":2.13103169,"ECCENTRICITY":0.00117433,"INCLINATION":65.3303,"RA_OF_ASC_NODE":315.8614,"ARG_OF_PERICENTER":330.3825,"MEAN_ANOMALY":29.5784,"EPHEMERIS_TYPE":0,"CLASSIFICATION_TYPE":"U","NORAD_CAT_ID":39620,"ELEMENT_SET_NO":999,"REV_AT_EPOCH":9403,"BSTAR":0,"MEAN_MOTION_DOT":-2.4e-7,"MEAN_MOTION_DDOT":0},{"OBJECT_NAME":"COSMOS 2500 (755)","OBJECT_ID":"2014-032A","EPOCH":"2026-04-26T21:21:44.631360","MEAN_MOTION":2.13105827,"ECCENTRICITY":0.0005744,"INCLINATION":65.2618,"RA_OF_ASC_NODE":315.4308,"ARG_OF_PERICENTER":181.8754,"MEAN_ANOMALY":178.1502,"EPHEMERIS_TYPE":0,"CLASSIFICATION_TYPE":"U","NORAD_CAT_ID":40001,"ELEMENT_SET_NO":999,"REV_AT_EPOCH":9236,"BSTAR":0,"MEAN_MOTION_DOT":-2.9e-7,"MEAN_MOTION_DDOT":0},{"OBJECT_NAME":"COSMOS 2501 (702K)","OBJECT_ID":"2014-075A","EPOCH":"2026-04-27T03:38:06.019584","MEAN_MOTION":2.131013,"ECCENTRICITY":0.0021867,"INCLINATION":63.614,"RA_OF_ASC_NODE":192.1381,"ARG_OF_PERICENTER":210.0421,"MEAN_ANOMALY":149.885,"EPHEMERIS_TYPE":0,"CLASSIFICATION_TYPE":"U","NORAD_CAT_ID":40315,"ELEMENT_SET_NO":999,"REV_AT_EPOCH":8876,"BSTAR":0,"MEAN_MOTION_DOT":-1.0e-8,"MEAN_MOTION_DDOT":0},{"OBJECT_NAME":"COSMOS 2514 (751)","OBJECT_ID":"2016-008A","EPOCH":"2026-04-26T04:44:11.019264","MEAN_MOTION":2.13102638,"ECCENTRICITY":0.00094881,"INCLINATION":65.0524,"RA_OF_ASC_NODE":314.7909,"ARG_OF_PERICENTER":198.1735,"MEAN_ANOMALY":161.8195,"EPHEMERIS_TYPE":0,"CLASSIFICATION_TYPE":"U","NORAD_CAT_ID":41330,"ELEMENT_SET_NO":999,"REV_AT_EPOCH":7951,"BSTAR":0,"MEAN_MOTION_DOT":-2.6e-7,"MEAN_MOTION_DDOT":0},{"OBJECT_NAME":"COSMOS 2522 (752)","OBJECT_ID":"2017-055A","EPOCH":"2026-04-25T02:19:14.468736","MEAN_MOTION":2.13101747,"ECCENTRICITY":0.00094751,"INCLINATION":64.0763,"RA_OF_ASC_NODE":193.6909,"ARG_OF_PERICENTER":236.5464,"MEAN_ANOMALY":123.4103,"EPHEMERIS_TYPE":0,"CLASSIFICATION_TYPE":"U","NORAD_CAT_ID":42939,"ELEMENT_SET_NO":999,"REV_AT_EPOCH":6684,"BSTAR":0,"MEAN_MOTION_DOT":-1.7e-7,"MEAN_MOTION_DDOT":0},{"OBJECT_NAME":"COSMOS 2527 (756)","OBJECT_ID":"2018-053A","EPOCH":"2026-04-25T23:55:04.352160","MEAN_MOTION":2.13101904,"ECCENTRICITY":0.00086008,"INCLINATION":65.5504,"RA_OF_ASC_NODE":75.647,"ARG_OF_PERICENTER":248.7222,"MEAN_ANOMALY":111.1654,"EPHEMERIS_TYPE":0,"CLASSIFICATION_TYPE":"U","NORAD_CAT_ID":43508,"ELEMENT_SET_NO":999,"REV_AT_EPOCH":6116,"BSTAR":0,"MEAN_MOTION_DOT":1.3e-7,"MEAN_MOTION_DDOT":0}]
